KUIPER-00104            
1 65142U 25171L   25236.66875636  .00025331  00000+0  73327-3 0  9997
2 65142  51.8791 341.3093 0004652 179.9624 180.1363 15.35423088  3261
KUIPER-00105            
1 65143U 25171M   25236.73002384  .00015039  00000+0  43436-3 0  9990
2 65143  51.8781 340.9678 0005998 165.3122 194.8039 15.35851627  3289
KUIPER-00106            
1 65144U 25171N   25236.66779225  .00018346  00000+0  53269-3 0  9997
2 65144  51.8782 341.2953 0005389 175.9278 184.1753 15.35532262  3279
KUIPER-00107            
1 65145U 25171P   25236.66810177  .00019699  00000+0  57186-3 0  9994
2 65145  51.8791 341.3048 0005308 177.3962 182.7052 15.35488854  3276
KUIPER-00108            
1 65146U 25171Q   25236.67083659  .00011087  00000+0  33168-3 0  9990
2 65146  51.8794 341.3224 0005463 194.5581 165.5248 15.35040202  3273
KUIPER-00109            
1 65147U 25171R   25236.66635725  .00017552  00000+0  50893-3 0  9994
2 65147  51.8784 341.2880 0005408 171.6760 188.4317 15.35607648  3267
KUIPER-00110            
1 65148U 25171S   25236.66747644  .00021780  00000+0  62932-3 0  9994
2 65148  51.8789 341.3004 0005419 173.8857 186.2196 15.35569720  3264
KUIPER-00111            
1 65149U 25171T   25236.66973525  .00014122  00000+0  41600-3 0  9995
2 65149  51.8792 341.3152 0004752 188.9740 171.1162 15.35291195  3264
